NORAD_CAT_ID,OBJECT_NAME,OBJECT_TYPE,EPOCH,MEAN_MOTION,ECCENTRICITY,INCLINATION,RA_OF_ASC_NODE,ARG_OF_PERICENTER,MEAN_ANOMALY,BSTAR,MEAN_MOTION_DOT,MEAN_MOTION_DDOT,TLE_LINE0,TLE_LINE1,TLE_LINE2,SEMIMAJOR_AXIS,PERIOD,APOGEE,PERIGEE,DECAYED
51963.0,STARLINK-3675,PAYLOAD,2023-11-09 03:43:20,15.08056388,0.0001358,53.0538,249.8917,89.9988,270.1157,4.8078e-05,4.63e-06,0.0,0 STARLINK-3675,1 51963U 22025H   23313.15509765  .00000463  00000-0  48078-4 0  9999,2 51963  53.0538 249.8917 0001358  89.9988 270.1157 15.08056388 93715,6920.277,95.487,543.081,541.202,0.0
51963.0,STARLINK-3675,PAYLOAD,2023-11-10 01:59:26,15.08044784,0.0001559,53.0548,245.7141,96.3784,263.7384,0.0011772,0.00018096,0.0,0 STARLINK-3675,1 51963U 22025H   23314.08294832  .00018096  00000-0  11772-2 0  9998,2 51963  53.0548 245.7141 0001559  96.3784 263.7384 15.08044784 93851,6920.312,95.488,543.256,541.098,0.0
51963.0,STARLINK-3675,PAYLOAD,2023-11-10 13:07:29,15.08046683,0.0001456,53.0552,243.626,96.1033,264.0123,0.00037649,5.583e-05,0.0,0 STARLINK-3675,1 51963U 22025H   23314.54686858  .00005583  00000-0  37649-3 0  9991,2 51963  53.0552 243.6260 0001456  96.1033 264.0123 15.08046683 92838,6920.306,95.488,543.179,541.164,0.0
51963.0,STARLINK-3675,PAYLOAD,2023-11-11 01:50:58,15.08040706,0.0001694,53.0547,241.2399,104.5173,255.6005,0.00024041,3.46e-05,0.0,0 STARLINK-3675,1 51963U 22025H   23315.07706612  .00003460  00000-0  24041-3 0  9995,2 51963  53.0547 241.2399 0001694 104.5173 255.6005 15.08040706 94008,6920.325,95.488,543.362,541.017,0.0
51963.0,STARLINK-3675,PAYLOAD,2023-11-11 19:20:46,15.08032127,0.0001689,53.0556,237.9576,107.0397,253.0778,0.00012835,1.713e-05,0.0,0 STARLINK-3675,1 51963U 22025H   23315.80609357  .00001713  00000-0  12835-3 0  9991,2 51963  53.0556 237.9576 0001689 107.0397 253.0778 15.08032127 94116,6920.351,95.489,543.385,541.047,0.0
51963.0,STARLINK-3675,PAYLOAD,2023-11-11 22:31:38,15.08028826,0.0001788,53.0558,237.3605,114.2622,245.8555,8.4187e-05,1.025e-05,0.0,0 STARLINK-3675,1 51963U 22025H   23315.93864299  .00001025  00000-0  84187-4 0  9999,2 51963  53.0558 237.3605 0001788 114.2622 245.8555 15.08028826 93040,6920.361,95.489,543.463,540.989,0.0
51963.0,STARLINK-3675,PAYLOAD,2023-11-12 11:15:08,15.08032069,0.0001592,53.0554,234.9756,95.8122,264.3049,-4.2733e-05,-9.51e-06,0.0,0 STARLINK-3675,1 51963U 22025H   23316.46884431 -.00000951  00000-0 -42733-4 0  9998,2 51963  53.0554 234.9756 0001592  95.8122 264.3049 15.08032069 93125,6920.351,95.489,543.318,541.114,0.0
51963.0,STARLINK-3675,PAYLOAD,2023-11-12 22:23:11,15.08034546,0.00015,53.0545,232.8874,96.5082,263.6078,0.00013832,1.868e-05,0.0,0 STARLINK-3675,1 51963U 22025H   23316.93276785  .00001868  00000-0  13832-3 0  9990,2 51963  53.0545 232.8874 0001500  96.5082 263.6078 15.08034546 93198,6920.343,95.489,543.246,541.17,0.0
51963.0,STARLINK-3675,PAYLOAD,2023-11-13 01:34:03,15.08040709,0.0001501,53.0548,232.2909,91.2842,268.832,0.00016357,2.262e-05,0.0,0 STARLINK-3675,1 51963U 22025H   23317.06531465  .00002262  00000-0  16357-3 0  9998,2 51963  53.0548 232.2909 0001501  91.2842 268.8320 15.08040709 94300,6920.325,95.488,543.228,541.151,0.0
51963.0,STARLINK-3675,PAYLOAD,2023-11-13 11:06:40,15.08042007,0.0001548,53.0549,230.5019,79.5532,280.5632,0.00018919,2.662e-05,0.0,0 STARLINK-3675,1 51963U 22025H   23317.46296318  .00002662  00000-0  18919-3 0  9997,2 51963  53.0549 230.5019 0001548  79.5532 280.5632 15.08042007 93275,6920.321,95.488,543.257,541.114,0.0
51963.0,STARLINK-3675,PAYLOAD,2023-11-14 01:25:36,15.08024076,0.0001804,53.0565,227.8219,95.4525,264.6671,-1.3945e-06,-3.08e-06,0.0,0 STARLINK-3675,1 51963U 22025H   23318.05944843 -.00000308  00000-0 -13945-5 0  9999,2 51963  53.0565 227.8219 0001804  95.4525 264.6671 15.08024076 94451,6920.375,95.489,543.489,540.992,0.0
51963.0,STARLINK-3675,PAYLOAD,2023-11-14 10:58:13,15.08029128,0.000135,53.0551,226.0288,80.207,279.9072,8.6008e-05,1.053e-05,0.0,0 STARLINK-3675,1 51963U 22025H   23318.45709739  .00001053  00000-0  86008-4 0  9991,2 51963  53.0551 226.0288 0001350  80.2070 279.9072 15.08029128 93429,6920.36,95.489,543.159,541.291,0.0
51963.0,STARLINK-3675,PAYLOAD,2023-11-14 22:06:15,15.08031506,0.0001405,53.0553,223.9432,89.2987,270.8163,3.6912e-05,2.89e-06,0.0,0 STARLINK-3675,1 51963U 22025H   23318.92101840  .00000289  00000-0  36912-4 0  9991,2 51963  53.0553 223.9432 0001405  89.2987 270.8163 15.08031506 93496,6920.353,95.489,543.19,541.245,0.0
51963.0,STARLINK-3675,PAYLOAD,2023-11-15 02:52:33,15.08042296,0.0001427,53.0549,223.0455,84.1762,275.939,0.00013827,1.868e-05,0.0,0 STARLINK-3675,1 51963U 22025H   23319.11983660  .00001868  00000-0  13827-3 0  9994,2 51963  53.0549 223.0455 0001427  84.1762 275.9390 15.08042296 94617,6920.32,95.488,543.172,541.197,0.0
51963.0,STARLINK-3675,PAYLOAD,2023-11-16 02:44:06,15.08035665,0.0001508,53.0553,218.5733,83.0161,277.1,0.00015957,2.199e-05,0.0,0 STARLINK-3675,1 51963U 22025H   23320.11396620  .00002199  00000-0  15957-3 0  9994,2 51963  53.0553 218.5733 0001508  83.0161 277.1000 15.08035665 94761,6920.34,95.488,543.249,541.161,0.0
51963.0,STARLINK-3675,PAYLOAD,2023-11-17 02:35:39,15.08036737,0.0001346,53.056,214.097,79.8373,280.2768,7.896e-06,-1.63e-06,0.0,0 STARLINK-3675,1 51963U 22025H   23321.10809095 -.00000163  00000-0  78960-5 0  9994,2 51963  53.0560 214.0970 0001346  79.8373 280.2768 15.08036737 94915,6920.337,95.488,543.133,541.27,0.0
51963.0,STARLINK-3675,PAYLOAD,2023-11-17 10:32:50,15.08014266,0.0001651,53.0555,212.6048,97.0192,263.0985,0.00025364,3.663e-05,0.0,0 STARLINK-3675,1 51963U 22025H   23321.43947559  .00003663  00000-0  25364-3 0  9993,2 51963  53.0555 212.6048 0001651  97.0192 263.0985 15.08014266 94967,6920.405,95.49,543.413,541.128,0.0
51963.0,STARLINK-3675,PAYLOAD,2023-11-17 23:16:19,15.08027725,0.0001754,53.055,210.2191,95.5369,264.582,8.9539e-06,-1.47e-06,0.0,0 STARLINK-3675,1 51963U 22025H   23321.96967155 -.00000147  00000-0  89539-5 0  9996,2 51963  53.0550 210.2191 0001754  95.5369 264.5820 15.08027725 93954,6920.364,95.489,543.443,541.015,0.0
51963.0,STARLINK-3675,PAYLOAD,2023-11-18 02:27:11,15.08027816,0.0001726,53.0549,209.6232,93.1085,267.0102,-3.6146e-07,-2.92e-06,0.0,0 STARLINK-3675,1 51963U 22025H   23322.10222160 -.00000292  00000-0 -36146-6 0  9992,2 51963  53.0549 209.6232 0001726  93.1085 267.0102 15.08027816 95064,6920.364,95.489,543.423,541.035,0.0
51963.0,STARLINK-3675,PAYLOAD,2023-11-18 23:07:51,15.08033388,0.0001702,53.0536,205.7466,89.4942,270.6243,9.7067e-05,1.226e-05,0.0,0 STARLINK-3675,1 51963U 22025H   23322.96378892  .00001226  00000-0  97067-4 0  9993,2 51963  53.0536 205.7466 0001702  89.4942 270.6243 15.08033388 94101,6920.347,95.489,543.39,541.034,0.0
51963.0,STARLINK-3675,PAYLOAD,2023-11-19 19:48:31,15.08028671,0.0001575,53.054,201.8698,88.4527,271.6643,0.00010766,1.39e-05,0.0,0 STARLINK-3675,1 51963U 22025H   23323.82536714  .00001390  00000-0  10766-3 0  9990,2 51963  53.0540 201.8698 0001575  88.4527 271.6643 15.08028671 95325,6920.361,95.489,543.316,541.136,0.0
51963.0,STARLINK-3675,PAYLOAD,2023-11-19 22:59:23,15.08030733,0.0001594,53.0544,201.273,90.3199,269.7973,0.00011912,1.569e-05,0.0,0 STARLINK-3675,1 51963U 22025H   23323.95791511  .00001569  00000-0  11912-3 0  9994,2 51963  53.0544 201.2730 0001594  90.3199 269.7973 15.08030733 94255,6920.355,95.489,543.323,541.117,0.0
51963.0,STARLINK-3675,PAYLOAD,2023-11-20 08:32:01,15.08027476,0.0001608,53.0553,199.4822,87.8245,272.2929,4.5502e-05,4.22e-06,0.0,0 STARLINK-3675,1 51963U 22025H   23324.35556903  .00000422  00000-0  45502-4 0  9993,2 51963  53.0553 199.4822 0001608  87.8245 272.2929 15.08027476 94311,6920.365,95.489,543.343,541.117,0.0
51963.0,STARLINK-3675,PAYLOAD,2023-11-20 22:50:56,15.08027264,0.0001663,53.055,196.8012,94.3539,265.764,1.6924e-05,-2.3e-07,0.0,0 STARLINK-3675,1 51963U 22025H   23324.95204523 -.00000023  00000-0  16924-4 0  9991,2 51963  53.0550 196.8012 0001663  94.3539 265.7640 15.08027264 94402,6920.366,95.489,543.382,541.08,0.0
51963.0,STARLINK-3675,PAYLOAD,2023-11-21 00:26:22,15.08028657,0.0001629,53.0552,196.5022,91.9687,268.1489,2.574e-05,1.15e-06,0.0,0 STARLINK-3675,1 51963U 22025H   23325.01831906  .00000115  00000-0  25740-4 0  9997,2 51963  53.0552 196.5022 0001629  91.9687 268.1489 15.08028657 95508,6920.361,95.489,543.354,541.099,0.0
51963.0,STARLINK-3675,PAYLOAD,2023-11-21 08:23:33,15.08027128,0.0001594,53.0549,195.0101,88.7065,271.4107,1.3059e-05,-8.3e-07,0.0,0 STARLINK-3675,1 51963U 22025H   23325.34969622 -.00000083  00000-0  13059-4 0  9995,2 51963  53.0549 195.0101 0001594  88.7065 271.4107 15.08027128 94461,6920.366,95.489,543.334,541.128,0.0
51963.0,STARLINK-3675,PAYLOAD,2023-11-21 21:07:02,15.08032897,0.000174,53.0545,192.6239,103.4905,256.6278,5.2026e-05,5.24e-06,0.0,0 STARLINK-3675,1 51963U 22025H   23325.87989193  .00000524  00000-0  52026-4 0  9994,2 51963  53.0545 192.6239 0001740 103.4905 256.6278 15.08032897 94545,6920.348,95.489,543.418,541.009,0.0
51963.0,STARLINK-3675,PAYLOAD,2023-11-22 00:17:54,15.08039579,0.0001825,53.0544,192.0274,100.4181,259.7014,3.1109e-05,1.98e-06,0.0,0 STARLINK-3675,1 51963U 22025H   23326.01243808  .00000198  00000-0  31109-4 0  9993,2 51963  53.0544 192.0274 0001825 100.4181 259.7014 15.08039579 95653,6920.328,95.488,543.456,540.93,0.0
51963.0,STARLINK-3675,PAYLOAD,2023-11-22 20:58:34,15.08037386,0.0001622,53.0542,188.1494,92.1155,268.002,0.00013518,1.82e-05,0.0,0 STARLINK-3675,1 51963U 22025H   23326.87401181  .00001820  00000-0  13518-3 0  9993,2 51963  53.0542 188.1494 0001622  92.1155 268.0020 15.08037386 94691,6920.335,95.488,543.322,541.077,0.0
51963.0,STARLINK-3675,PAYLOAD,2023-11-23 00:09:26,15.08044097,0.0001551,53.0542,187.5521,92.7535,267.3632,0.00018271,2.561e-05,0.0,0 STARLINK-3675,1 51963U 22025H   23327.00655550  .00002561  00000-0  18271-3 0  9994,2 51963  53.0542 187.5521 0001551  92.7535 267.3632 15.08044097 94715,6920.314,95.488,543.253,541.106,0.0
